POLYITAN-1              
1 40042U 14033AJ  26194.60585493  .00011285  00000+0  34337-3 0  9992
2 40042  98.0935 223.3833 0008032  69.0033 291.2066 15.34182579657643
TIGRISAT                
1 40043U 14033AK  26194.66030179  .00000798  00000+0  97538-4 0  9995
2 40043  97.7861 344.0710 0048750 349.4137  10.6048 14.85246908649550
AEROCUBE 6A             
1 40045U 14033AM  26194.40447623  .00003127  00000+0  26419-3 0  9993
2 40045  97.7236   1.0799 0036450 287.1710  72.5524 14.98332074650545
AEROCUBE 6B             
1 40046U 14033AN  26194.44800481  .00002679  00000+0  21843-3 0  9990
2 40046  97.7196   0.9676 0038007 276.2664  83.4230 14.99788967650698
CANX-4                  
1 40055U 14034C   26194.63128595  .00000449  00000+0  64859-4 0  9999
2 40055  98.3086  70.9111 0011467 288.5031  71.4934 14.81309629648442
CANX-5                  
1 40056U 14034D   26194.62941029  .00000451  00000+0  65049-4 0  9999
2 40056  98.3088  70.9543 0011460 288.7067  71.2900 14.81326996639254
UKUBE-1                 
1 40074U 14037F   26194.47683775  .00004476  00000+0  25133-3 0  9996
2 40074  98.4240 200.5192 0003327  92.0376 268.1233 15.13935151652535
BRITE-PL2 (HEWELIUSZ)   
1 40119U 14049B   26194.75028223  .00000648  00000+0  65131-4 0  9991
2 40119  97.9120 306.9592 0014480  26.9813 333.2156 14.94684980645411
AEROCUBE 5C             
1 40965U 15058B   26194.32047284  .00001862  00000+0  17187-3 0  9998
2 40965  64.7652 181.2824 0132209  53.1402 308.1745 14.91569281369556
AEROCUBE 7              
1 40966U 15058C   26194.64282785  .00002949  00000+0  24038-3 0  9991
2 40966  64.7609 161.9388 0121941  51.3401 309.8549 14.95904974369915
FOX-1A (AO-85)          
1 40967U 15058D   26194.37655269  .00001690  00000+0  15942-3 0  9999
2 40967  64.7723 197.5870 0132208  46.4986 314.7024 14.91081725117476
SINOD-D 1               
1 40968U 15058E   26194.35026030  .00002930  00000+0  23839-3 0  9998
2 40968  64.7731 176.9685 0120896  42.8594 318.1865 14.96077409120571
SNAP-3 ALICE            
1 40970U 15058G   26194.84586794  .00094939  00000+0  86681-3 0  9997
2 40970  64.7492  11.3025 0024385 349.1970  10.8652 15.66961644121050
LMRST-SAT               
1 40971U 15058H   26194.40567202  .00001627  00000+0  15506-3 0  9993
2 40971  64.7731 193.8846 0133768  48.4907 312.7591 14.90697105117469
SNAP-3 EDDIE            
1 40972U 15058J   26194.87838792  .00100523  00000+0  86610-3 0  9999
2 40972  64.7400   1.7103 0025223 351.6214   8.4511 15.68332074123209
PROPCUBE 3              
1 40973U 15058K   26194.37659282  .00002428  00000+0  20685-3 0  9995
2 40973  64.7667 170.6999 0125601  49.6933 311.5075 14.94407083118711
BISONSAT                
1 40974U 15058L   26194.87214997  .00008729  00000+0  41377-3 0  9992
2 40974  64.7587  87.3197 0081970  36.4056 324.2604 15.16909871119668
SNAP-3 JIMI             
1 40975U 15058M   26194.28180831  .00004425  00000+0  30462-3 0  9999
2 40975  64.7643 137.1920 0107717  45.0565 315.9226 15.02592193118148
PROPCUBE 1 (FLORA)      
1 40976U 15058N   26194.78758161  .00001216  00000+0  12455-3 0  9999
2 40976  64.7718 212.7869 0132379  50.6270 310.6479 14.89323452120229
SINOD-D 3               
1 40977U 15058P   26194.41246176  .00002341  00000+0  20339-3 0  9998
2 40977  64.7700 193.9150 0120914  47.8300 313.3005 14.94165190118678
RAVAN                   
1 41849U 16067B   26194.66747531  .00034803  00000+0  47624-3 0  9990
2 41849  97.9846  87.3496 0002006 225.1788 134.9303 15.57350271531816
CELTEE 1                
1 41850U 16067C   26194.60856789  .00002829  00000+0  13527-3 0  9990
2 41850  98.0640  62.9779 0002287 111.9724 248.1752 15.19931554529896
OPTICUBE 04             
1 41851U 16067D   26194.65701207  .00001206  00000+0  78924-4 0  9991
2 41851  98.0675  48.3201 0016277  32.8445 327.3791 15.09768414529163
AEROCUBE 8D             
1 41852U 16067E   26194.60576264  .00004403  00000+0  18105-3 0  9996
2 41852  98.0647  66.7886 0004683  60.9007 299.2697 15.24755969530094
AEROCUBE 8C             
1 41853U 16067F   26194.62637785  .00004207  00000+0  17185-3 0  9994
2 41853  98.0521  64.0049 0004471 347.6980  12.4146 15.25010493530099
CORVUS BC2              
1 42846U 17042X   26194.76536817  .00001364  00000+0  96345-4 0  9997
2 42846  97.4090 355.0880 0013579  27.8263 332.3689 15.06452530491062
CORVUS BC1              
1 42847U 17042Y   26194.69063245  .00001035  00000+0  73816-4 0  9993
2 42847  97.4116 355.8472 0011755   5.7954 354.3408 15.06615457491087
MAKERSAT 0              
1 43016U 17073D   26194.62405453  .00012247  00000+0  32412-3 0  9993
2 43016  97.4590  77.3600 0105364 177.8429 182.3290 15.32968226470516
SIRION PATHFINDER-2     
1 43759U 18099B   26193.94648822  .00002956  00000+0  16276-3 0  9995
2 43759  97.4243 242.3930 0008238 199.6407 160.4509 15.14767949416525
CORVUS BC4              
1 43767U 18099K   26194.64966042  .00002357  00000+0  13824-3 0  9990
2 43767  97.4055 236.8562 0006495 267.5347  92.5141 15.12695481416408
